OID_,UNIT_CODE,UNIT_NAME,STATE,REGION,Lat,Lon,ExpRep
0,AMME,American Memorial Park,MP,PW,15.21501518,145.7240013,NA
1,CEBE,Cedar Creek and Belle Grove National Historical Park,VA,NE,38.9923793,-78.31608609,Northeast
2,LIBI,Little Bighorn Battlefield National Monument,MT,IM,45.56505379,-107.4286363,Mountains
3,CAVO,Capulin Volcano National Monument,NM,IM,36.78171068,-103.9710428,Plains
4,FOBO,Fort Bowie National Historic Site,AZ,IM,32.14925916,-109.4511317,DesertSW
5,GICL,Gila Cliff Dwellings National Monument,NM,IM,33.22760971,-108.2732958,DesertSW
6,TUZI,Tuzigoot National Monument,AZ,IM,34.77296334,-112.027907,DesertSW
7,YUHO,Yucca House National Monument,CO,IM,37.24895445,-108.6859548,Sagebrush
8,WOTR,Wolf Trap National Park for the Performing Arts,VA,NC,38.9379319,-77.26355408,Northeast
9,CASA,Castillo de San Marcos National Monument,FL,SE,29.897857,-81.31217173,Coastal
10,TICA,Timpanogos Cave National Monument,UT,IM,40.44039704,-111.7093944,Sagebrush
11,THIS,Theodore Roosevelt Island National Memorial,DC,NC,38.89584149,-77.06241914,Northeast
12,LYBA,Lyndon Baines Johnson Memorial Grove on the Potomac,DC,NC,38.87858032,-77.0514583,Northeast
13,ARHO,"Arlington House, The Robert E. Lee Memorial",VA,NC,38.88255199,-77.07460869,Northeast
14,CUGA,Cumberland Gap National Historical Park,KY,SE,36.63126385,-83.60635656,Midwest
15,GREE,Greenbelt Park,MD,NC,38.98403277,-76.90069152,Northeast
16,TUPE,Tupelo National Battlefield,MS,SE,34.25557705,-88.73708623,Coastal
17,BRCR,Brices Cross Roads National Battlefield Site,MS,SE,34.50611958,-88.72889343,Coastal
18,PORE,Point Reyes National Seashore,CA,PW,38.05500555,-122.8797044,NWForest
19,FOSU,Fort Sumter and Fort Moultrie National Historical Park,SC,SE,32.75359427,-79.87933364,Coastal
20,TONT,Tonto National Monument,AZ,IM,33.64842885,-111.1135629,DesertSW
21,HOFR,Home of Franklin D. Roosevelt National Historic Site,NY,NE,41.76804119,-73.92671769,Northeast
22,NISI,Ninety Six National Historic Site,SC,SE,34.1427351,-82.01636093,Midwest
23,BUIS,Buck Island Reef National Monument,VI,SE,17.81026454,-64.62221751,
24,CAWO,Carter G. Woodson National Historic Site,MD,NC,38.91088511,-77.02430875,Northeast
25,BOHA,Boston Harbor Islands National Recreation Area,MA,NE,42.26219884,-70.8761789,Northeast
26,SUCR,Sunset Crater Volcano National Monument,AZ,IM,35.37114203,-111.510376,Sagebrush
27,MABE,Mary McLeod Bethune Council House National Historic Site,DC,NC,38.90818332,-77.03096513,Northeast
28,FOTH,Ford's Theatre National Historic Site,DC,NC,38.89666226,-77.02565974,Northeast
29,BRVB,Brown v. Board of Education National Historic Site,KS,MW,39.03793261,-95.67640762,Midwest
30,PISP,Pipe Spring National Monument,AZ,IM,36.86282664,-112.7398567,Sagebrush
31,ELMO,El Morro National Monument,NM,IM,35.03895884,-108.3463984,Sagebrush
32,ANJO,Andrew Johnson National Historic Site,TN,SE,36.15536303,-82.8381405,Midwest
33,SAPA,Saint Paul's Church National Historic Site,NY,NE,40.89283511,-73.82577277,Northeast
34,CACL,Castle Clinton National Monument,NY,NE,40.70347795,-74.01680558,Coastal
35,FOBU,Fossil Butte National Monument,WY,IM,41.85634277,-110.7624714,Sagebrush
36,HOVE,Hovenweep National Monument,UT,IM,37.383539,-109.0684513,Sagebrush
37,FOUN,Fort Union National Monument,NM,IM,35.90737075,-105.0120174,Plains
38,ABLI,Abraham Lincoln Birthplace National Historical Park,KY,SE,37.61197573,-85.64442062,Midwest
39,DRTO,Dry Tortugas National Park,FL,SE,24.64883027,-82.87179065,
40,FOFR,Fort Frederica National Monument,GA,SE,31.22355511,-81.38984256,Coastal
41,MANZ,Manzanar National Historic Site,CA,PW,36.72559147,-118.1547178,DesertSW
42,BRCA,Bryce Canyon National Park,UT,IM,37.5838981,-112.1827111,Sagebrush
43,JODR,"John D. Rockefeller, Jr., Memorial Parkway",WY,IM,44.08869782,-110.7280424,Mountains
44,EDIS,Thomas Edison National Historical Park,NJ,NE,40.78597075,-74.23982097,Northeast
45,YELL,Yellowstone National Park,WY,IM,44.59644456,-110.5471962,Mountains
46,HUTR,Hubbell Trading Post National Historic Site,AZ,IM,35.70727316,-109.5599516,Sagebrush
47,CHAM,Chamizal National Memorial,TX,IM,31.76729632,-106.4544011,DesertSW
48,PUHE,Pu'ukohola Heiau National Historic Site,HI,PW,20.02772183,-155.8211629,NA
49,ULSG,Ulysses S. Grant National Historic Site,MO,MW,38.55182373,-90.35169255,Midwest
50,CANA,Canaveral National Seashore,FL,SE,28.78624732,-80.75412332,Coastal
51,AFBG,African Burial Ground National Monument,NY,NE,40.71454948,-74.00432891,Coastal
52,CABR,Cabrillo National Monument,CA,PW,32.67225021,-117.2415986,DesertSW
53,CLBA,Clara Barton National Historic Site,MD,NC,38.96762881,-77.14009689,Northeast
54,FOWA,Fort Washington Park,MD,NC,38.71217666,-77.02875093,Northeast
55,SEQU,Sequoia National Park,CA,PW,36.50768379,-118.5752033,Mountains
56,KALA,Kalaupapa National Historical Park,HI,PW,21.15464089,-156.9246498,NA
57,TUAI,Tuskegee Airmen National Historic Site,AL,SE,32.45538667,-85.67983319,Coastal
58,SARI,Salt River Bay National Historical Park and Ecological Preserve,VI,SE,17.77908536,-64.75519358,
59,NATC,Natchez National Historical Park,MS,SE,31.54301947,-91.38244977,Coastal
60,EDAL,Edgar Allan Poe National Historic Site,PA,NE,39.96195482,-75.1500062,Coastal
61,BOAF,Boston African American National Historic Site,MA,NE,42.35789563,-71.07064043,Northeast
62,MACA,Mammoth Cave National Park,KY,SE,37.19758047,-86.13089476,Midwest
63,EUON,Eugene O'Neill National Historic Site,CA,PW,37.82604456,-122.0271566,NWForest
64,ADAM,Adams National Historical Park,MA,NE,42.25659415,-71.01254939,Northeast
65,NAVA,Navajo National Monument,AZ,IM,36.68549118,-110.5362565,Sagebrush
66,THST,Thomas Stone National Historic Site,MD,NE,38.52934415,-77.0378129,Coastal
67,CARI,Cane River Creole National Historical Park,LA,SE,31.66444166,-93.00729876,Coastal
68,GRBA,Great Basin National Park,NV,PW,38.9460953,-114.2579658,DesertSW
69,GRPO,Grand Portage National Monument,MI,MW,47.999682,-89.7606885,Midwest
70,WHIS,Whiskeytown-Shasta-Trinity National Recreation Area,CA,PW,40.6135802,-122.6022603,NWForest
71,FOPO,Fort Point National Historic Site,CA,PW,37.80840018,-122.4737172,
72,SAMA,Salem Maritime National Historic Site,MA,NE,42.51959897,-70.88683823,Northeast
73,WAMO,Washington Monument,DC,NC,38.88865172,-77.03546584,Northeast
74,JEFM,Thomas Jefferson Memorial,DC,NC,38.8810143,-77.03632573,Northeast
75,MOCR,Moores Creek National Battlefield,NC,SE,34.45820773,-78.11031132,Coastal
76,HOBE,Horseshoe Bend National Military Park,AL,SE,32.97668769,-85.73413618,Coastal
77,FOMA,Fort Matanzas National Monument,FL,SE,29.71140527,-81.23866231,Coastal
78,CHIS,Channel Islands National Park,CA,PW,34.01655127,-119.7396508,DesertSW
79,CANY,Canyonlands National Park,UT,IM,38.24314039,-109.8769622,Sagebrush
80,WHHO,White House,DC,NC,38.89703998,-77.03655356,Northeast
81,BOWA,Booker T. Washington National Monument,VA,NE,37.11481335,-79.73187418,Northeast
82,JELA,Jean Lafitte National Historical Park and Preserve,LA,SE,29.81916125,-90.14721028,Coastal
83,JECA,Jewel Cave National Monument,SD,MW,43.7310286,-103.829994,Plains
84,FOLS,Fort Larned National Historic Site,KS,MW,38.18449077,-99.21697509,Plains
85,RORI,Rosie the Riveter/World War II Home Front National Historical Park,CA,PW,37.9086682,-122.366535,NWForest
86,FOST,Fort Stanwix National Monument,NY,NE,43.2105344,-75.45557626,Northeast
87,THKO,Thaddeus Kosciuszko National Memorial,PA,NE,39.94345312,-75.14732045,Coastal
88,PEVI,Perry's Victory and International Peace Memorial,OH,MW,41.65379041,-82.81190443,
89,JAGA,James A. Garfield National Historic Site,OH,MW,41.66486548,-81.35086557,Midwest
90,CATO,Catoctin Mountain Park,MD,NC,39.64821119,-77.46122133,Northeast
91,RABR,Rainbow Bridge National Monument,UT,IM,37.07788763,-110.9655099,Sagebrush
92,NABR,Natural Bridges National Monument,UT,IM,37.60452811,-110.0022454,Sagebrush
93,BEOL,Bent's Old Fort National Historic Site,CO,IM,38.03977483,-103.42665,Plains
94,PIMA,Hohokam Pima National Monument,AZ,IM,33.18713816,-111.9192739,DesertSW
95,GUIS,Gulf Islands National Seashore,FL,SE,30.37306335,-86.90996505,Coastal
96,APCO,Appomattox Court House National Historical Park,VA,NE,37.38274761,-78.80089447,Northeast
97,PIPE,Pipestone National Monument,MN,MW,44.01351938,-96.32475523,Midwest
98,BISC,Biscayne National Park,FL,SE,25.49049476,-80.210247,
99,ARPO,Arkansas Post National Memorial,AR,MW,34.02072545,-91.3473276,Midwest
100,MORU,Mount Rushmore National Memorial,SD,MW,43.88036924,-103.4525188,Plains
101,GUMO,Guadalupe Mountains National Park,TX,IM,31.92334952,-104.8843561,DesertSW
102,CIRO,City of Rocks National Reserve,ID,PW,42.06988424,-113.7124104,Sagebrush
103,HAFO,Hagerman Fossil Beds National Monument,ID,PW,42.77557327,-114.9539989,Sagebrush
104,PETE,Petersburg National Battlefield,VA,NE,37.22799503,-77.36301724,Northeast
105,FOVA,Fort Vancouver National Historic Site,WA,PW,45.62356027,-122.6616376,NWForest
106,SAGA,Saint-Gaudens National Historical Park,NH,NE,43.50046879,-72.37403165,Northeast
107,JOFI,John Fitzgerald Kennedy National Historic Site,MA,NE,42.34693694,-71.12323846,Northeast
108,JEFF,Gateway Arch National Park,MO,MW,38.6221161,-90.17562932,Midwest
109,FOPU,Fort Pulaski National Monument,GA,SE,32.03477743,-80.94362859,Coastal
110,ELRO,Eleanor Roosevelt National Historic Site,NY,NE,41.76086389,-73.89687748,Northeast
111,FRHI,Friendship Hill National Historic Site,PA,NE,39.77545488,-79.92528004,Northeast
112,THRB,Theodore Roosevelt Birthplace National Historic Site,NY,NE,40.73859312,-73.98901268,Coastal
113,CORO,Coronado National Memorial,AZ,IM,31.34900272,-110.2561572,DesertSW
114,WRBR,Wright Brothers National Memorial,NC,SE,36.01621134,-75.67022037,Coastal
115,SEMO,Selma to Montgomery National Historic Trail,AL,SE,32.27082092,-86.72823702,Coastal
116,KIMO,Kings Mountain National Military Park,SC,SE,35.13900555,-81.38978804,Midwest
117,GOSP,Golden Spike National Historical Park,UT,IM,41.63099575,-112.4939862,Sagebrush
118,NEBE,New Bedford Whaling National Historical Park,MA,NE,41.63564794,-70.92319615,Coastal
119,SAHI,Sagamore Hill National Historic Site,NY,NE,40.88557279,-73.49668653,Coastal
120,LABE,Lava Beds National Monument,CA,PW,41.75872643,-121.5178032,NWForest
121,WORI,Women's Rights National Historical Park,NY,NE,42.90262007,-76.84451357,Northeast
122,GERO,George Rogers Clark National Historical Park,IN,MW,38.67840212,-87.53700769,Midwest
123,LONG,Longfellow House-Washington's Headquarters National Historic Site,MA,NE,42.37698854,-71.12636956,Northeast
124,HOFU,Hopewell Furnace National Historic Site,PA,NE,40.2060723,-75.76811627,Northeast
125,FRDE,Franklin Delano Roosevelt Memorial,DC,NC,38.88341274,-77.04311542,Northeast
126,MOCA,Montezuma Castle National Monument,AZ,IM,34.61102059,-111.8366153,DesertSW
127,KICA,Kings Canyon National Park,CA,PW,36.89861451,-118.5872447,Mountains
128,SPAR,Springfield Armory National Historic Site,MA,NE,42.10830436,-72.5811256,Northeast
129,WHMI,Whitman Mission National Historic Site,WA,PW,46.04265092,-118.4654876,Sagebrush
130,WWII,World War II Memorial,DC,NC,38.88923916,-77.0403759,Northeast
131,VIVE,Vietnam Veterans Memorial,DC,NC,38.89096297,-77.04765735,Northeast
132,KOWA,Korean War Veterans Memorial,DC,NC,38.88792133,-77.04807734,Northeast
133,COGA,Constitution Gardens,DC,NC,38.89093673,-77.04426658,Northeast
134,MLKM,"Martin Luther King, Jr., Memorial",DC,NC,38.88628209,-77.04439707,Northeast
135,LINC,Lincoln Memorial,DC,NC,38.88927229,-77.05017778,Northeast
136,MALL,National Mall,DC,NC,38.88986603,-77.02278438,Northeast
137,RUCA,Russell Cave National Monument,AL,SE,34.97083923,-85.81858648,Midwest
138,MAWA,Maggie L. Walker National Historic Site,VA,NE,37.54732825,-77.43674808,Northeast
139,BICA,Bighorn Canyon National Recreation Area,WY,IM,45.28907419,-108.0264036,Mountains
140,PUHO,Pu'uhonua o Honaunau National Historical Park,HI,PW,19.40903135,-155.8996777,NA
141,SAND,Sand Creek Massacre National Historic Site,CO,IM,38.56413439,-102.5169514,Plains
142,KNRI,Knife River Indian Villages National Historic Site,ND,MW,47.36850054,-101.3920156,Plains
143,MORR,Morristown National Historical Park,NJ,NE,40.76780366,-74.53749376,Northeast
144,MAVA,Martin Van Buren National Historic Site,NY,NE,42.36666376,-73.71529506,Northeast
145,GOIS,Governors Island National Monument,NY,NE,40.69161563,-74.01682767,
146,SCBL,Scotts Bluff National Monument,NE,MW,41.8347614,-103.7072431,Plains
147,JOFL,Johnstown Flood National Memorial,PA,NE,40.3449218,-78.77673481,Northeast
148,AGFO,Agate Fossil Beds National Monument,NE,MW,42.42147185,-103.743999,Plains
149,RRBH,Ronald Reagan Boyhood Home National Historic Site,IL,MW,41.83621267,-89.48053115,Midwest
150,CARE,Capitol Reef National Park,UT,IM,38.38355285,-111.2830036,Sagebrush
151,FLNI,Flight 93 National Memorial,PA,NE,40.06061151,-78.89457021,Northeast
152,DEPO,Devils Postpile National Monument,CA,PW,37.61537361,-119.0876861,Mountains
153,SAFR,San Francisco Maritime National Historical Park,CA,PW,37.81006647,-122.4244247,
154,PAAL,Palo Alto Battlefield National Historical Park,TX,IM,26.02474215,-97.4627218,Coastal
155,VICR,Virgin Islands Coral Reef National Monument,VI,SE,18.27350899,-64.70793993,
156,MABI,Marsh-Billings-Rockefeller National Historical Park,VT,NE,43.63382235,-72.53823839,Northeast
157,LIRI,Little River Canyon National Preserve,AL,SE,34.4519056,-85.59724642,Midwest
158,CHYO,Charles Young Buffalo Soldiers National Monument,OH,MW,39.70744063,-83.89223082,Midwest
159,DAAV,Dayton Aviation Heritage National Historical Park,OH,MW,39.80396752,-84.06442181,Midwest
160,EISE,Eisenhower National Historic Site,PA,NE,39.79577487,-77.26508102,Northeast
161,CECH,Cesar E. Chavez National Monument,CA,PW,35.22729381,-118.5615781,DesertSW
162,FONE,Fort Necessity National Battlefield,PA,NE,39.81003749,-79.5886907,Northeast
163,SAPU,Salinas Pueblo Missions National Monument,NM,IM,34.25942389,-106.0897997,Sagebrush
164,PINN,Pinnacles National Park,CA,PW,36.49021462,-121.1809924,NWForest
165,FOMC,Fort McHenry National Monument and Historic Shrine,MD,NE,39.26395311,-76.58044164,Coastal
166,SAIR,Saugus Iron Works National Historic Site,MA,NE,42.46849928,-71.00775926,Northeast
167,ROWI,Roger Williams National Memorial,RI,NE,41.82989549,-71.41056665,Coastal
168,CAGR,Casa Grande Ruins National Monument,AZ,IM,32.99702566,-111.5325383,DesertSW
169,CHRI,Christiansted National Historic Site,VI,SE,17.73405572,-64.73996534,NA
170,ALPO,Allegheny Portage Railroad National Historic Site,PA,NE,40.44677136,-78.53186093,Northeast
171,DESO,De Soto National Memorial,FL,SE,27.52272611,-82.64335416,NA
172,ANDE,Andersonville National Historic Site,GA,SE,32.19830322,-84.12989005,Coastal
173,OCMU,Ocmulgee Mounds National Historical Park,GA,SE,32.83973829,-83.59675984,Coastal
174,COWP,Cowpens National Battlefield,SC,SE,35.13160593,-81.80935401,Midwest
175,CHIR,Chiricahua National Monument,AZ,IM,32.01214105,-109.3416065,DesertSW
176,MALU,"Martin Luther King, Jr. National Historical Park",GA,SE,33.75492007,-84.3716933,Coastal
177,WAPA,War in the Pacific,GU,PW,13.39001068,144.6551139,
178,DETO,Devils Tower National Monument,WY,IM,44.59064562,-104.7156342,Plains
179,BOST,Boston National Historical Park,MA,NE,42.37337754,-71.0557492,Northeast
180,ORCA,Oregon Caves National Monument and Preserve,OR,PW,42.1031365,-123.4016405,NWForest
181,GEGR,General Grant National Memorial,NY,NE,40.81343436,-73.96307567,Coastal
182,GOGA,Golden Gate National Recreation Area,CA,PW,37.85887677,-122.551128,NWForest
183,POCH,Port Chicago Naval Magazine National Memorial,CA,PW,38.05685471,-122.0301603,NWForest
184,JODA,John Day Fossil Beds National Monument,OR,PW,44.543136,-119.6343185,Sagebrush
185,FRST,First State National Historical Park,DE,NE,39.83184434,-75.56362482,Coastal
186,GUCO,Guilford Courthouse National Military Park,NC,SE,36.1330178,-79.84186813,Midwest
187,PAGR,Paterson Great Falls National Historical Park,NJ,NE,40.91589777,-74.18022529,Northeast
188,WEFA,Weir Farm National Historical Park,CT,NE,41.25675816,-73.45648717,Northeast
189,THRI,Theodore Roosevelt Inaugural National Historic Site,NY,NE,42.90146781,-78.87248411,Northeast
190,LAVO,Lassen Volcanic National Park,CA,PW,40.49378739,-121.4072048,NWForest
191,HONO,Honouliuli National Historic Site,HI,PW,21.3881751,-158.057499,NA
192,FODO,Fort Donelson National Battlefield,TN,SE,36.48728222,-87.86088301,Midwest
193,VAMA,Vanderbilt Mansion National Historic Site,NY,NE,41.79660726,-73.94194571,Northeast
194,JICA,Jimmy Carter National Historical Park,GA,SE,32.02631793,-84.43240803,Coastal
195,GATE,Gateway National Recreation Area,NY,NE,40.6185497,-73.86104473,Coastal
196,UPDE,Upper Delaware Scenic and Recreational River,PA,NE,41.51695699,-75.00971481,Northeast
197,MIIN,Minidoka National Historic Site,WA,PW,42.68104292,-114.2473752,Sagebrush
198,BIHO,Big Hole National Battlefield,MT,PW,45.64647258,-113.6458442,Sagebrush
199,CACH,Canyon de Chelly National Monument,AZ,IM,36.09404758,-109.3400673,Sagebrush
200,CACO,Cape Cod National Seashore,MA,NE,41.96046329,-70.00519431,Coastal
201,MAPR,Manhattan Project National Historical Park,NM,IM,35.93539541,-84.39333039,Midwest
202,MORA,Mount Rainier National Park,WA,PW,46.86060444,-121.7043729,NWForest
203,LIBO,Lincoln Boyhood National Memorial,IN,MW,38.11816976,-86.99656863,Midwest
204,FRLA,Frederick Law Olmsted National Historic Site,MA,NE,42.32367646,-71.13155216,Northeast
205,CAMO,Castle Mountains National Monument,CA,PW,35.22833027,-115.1258986,DesertSW
206,GEWA,George Washington Birthplace National Monument,VA,NE,38.18973481,-76.91980938,Coastal
207,HAGR,Hamilton Grange National Memorial,NY,NE,40.82135159,-73.94729122,Coastal
208,HAMP,Hampton National Historic Site,MD,NE,39.41657773,-76.58822561,Coastal
209,WACO,Waco Mammoth National Monument,TX,IM,31.60465881,-97.17606141,Plains
210,GLCA,Glen Canyon National Recreation Area,UT,IM,37.39766815,-110.8021276,Sagebrush
211,YOSE,Yosemite National Park,CA,PW,37.84831878,-119.5571434,Mountains
212,TAPR,Tallgrass Prairie National Preserve,KS,MW,38.45133065,-96.57381586,Midwest
213,TUIN,Tuskegee Institute National Historic Site,AL,SE,32.42959755,-85.7044128,Coastal
214,FOCA,Fort Caroline National Memorial,FL,SE,30.38460545,-81.50027273,Coastal
215,SACR,Saint Croix Island International Historic Site,ME,NE,45.12858837,-67.13363651,Northeast
216,LOSA,Lower Saint Croix National Scenic Riverway,WI,MW,45.34489814,-92.70445977,Midwest
217,STLI,Statue Of Liberty National Monument,NY,NE,40.69831807,-74.04113205,
218,BAND,Bandelier National Monument,NM,IM,35.75758546,-106.3054344,Sagebrush
219,WICA,Wind Cave National Park,SD,MW,43.5801136,-103.4391648,Plains
220,NATR,Natchez Trace Parkway,MS,SE,34.18641308,-88.79544397,Coastal
221,COLM,Colorado National Monument,CO,IM,39.05042535,-108.6920609,Sagebrush
222,FRSP,Fredericksburg and Spotsylvania County Battlefields Memorial National Military Park,VA,NE,38.30363874,-77.7387668,Northeast
223,PULL,Pullman National Monument,IL,MW,41.69429129,-87.60879769,Midwest
224,PAAV,Pennsylvania Avenue National Historic Site,DC,NC,38.89281849,-77.0177561,Northeast
225,WWIM,World War I Memorial,DC,NC,38.89593275,-77.0328604,Northeast
226,BEPA,Belmont-Paul Women's Equality National Monument,DC,NC,38.89232345,-77.00386075,Northeast
227,NOCA,North Cascades National Park,WA,PW,48.83302698,-121.346522,NWForest
228,STON,Stonewall National Monument,NY,NE,40.73338906,-74.00099817,Coastal
229,NPSA,National Park of American Samoa,AS,PW,-14.23687288,-169.4527887,NA
230,VOYA,Voyageurs National Park,MN,MW,48.48327144,-92.83720626,Midwest
231,HAFE,Harpers Ferry National Historical Park,WV,NC,39.31286156,-77.74195536,Northeast
232,CONG,Congaree National Park,SC,SE,33.79186782,-80.74866548,Coastal
233,FEHA,Federal Hall National Memorial,NY,NE,40.70731466,-74.01025987,Coastal
234,FRDO,Frederick Douglass National Historic Site,DC,NC,38.86297683,-76.98507919,Northeast
235,FOSM,Fort Smith National Historic Site,AR,MW,35.38832353,-94.43127173,Midwest
236,HALE,Haleakala National Park,HI,PW,20.70728294,-156.1485713,NA
237,ELMA,El Malpais National Monument,NM,IM,34.78621896,-107.9777345,Sagebrush
238,LECL,Lewis and Clark National Historic Trail,NE,MW,40.66414463,-95.83253428,Midwest
239,LACH,Lake Chelan National Recreation Area,WA,PW,48.3824175,-120.6999484,NWForest
240,CARL,Carl Sandburg Home National Historic Site,NC,SE,35.26824318,-82.45096659,Midwest
241,LYJO,Lyndon B. Johnson National Historical Park,TX,IM,30.25035877,-98.62171204,Plains
242,CAVE,Carlsbad Caverns National Park,NM,IM,32.14092525,-104.5531363,DesertSW
243,AZRU,Aztec Ruins National Monument,NM,IM,36.83682198,-107.9999245,Sagebrush
244,ZION,Zion National Park,UT,IM,37.29823699,-113.026442,Sagebrush
245,LIHO,Lincoln Home National Historic Site,IL,MW,39.79715641,-89.64513397,Midwest
246,CRMP,Craters of the Moon National Preserve,ID,PW,43.15185707,-113.4827536,Sagebrush
247,CRMO,Craters of the Moon National Monument,ID,PW,43.42303799,-113.5344363,Sagebrush
248,PECO,Pecos National Historical Park,NM,IM,35.54978449,-105.6908309,Plains
249,ORPI,Organ Pipe Cactus National Monument,AZ,IM,32.03570575,-112.8572827,DesertSW
250,CURE,Curecanti National Recreation Area,CO,IM,38.46285024,-107.1673391,Sagebrush
251,THRO,Theodore Roosevelt National Park,ND,MW,46.95359206,-103.4592227,Plains
252,DINO,Dinosaur National Monument,CO,IM,40.50596642,-108.9377028,Sagebrush
253,CRLA,Crater Lake National Park,OR,PW,42.94106575,-122.1327472,NWForest
254,APIS,Apostle Islands National Lakeshore,WI,MW,46.93671618,-90.57955662,Midwest
255,GLAC,Glacier National Park,MT,IM,48.74680027,-113.8584101,Mountains
256,SAGU,Saguaro National Park,AZ,IM,32.17870723,-110.6079008,DesertSW
257,KEWE,Keweenaw National Historical Park,MI,MW,47.13815614,-88.56870596,Midwest
258,HOME,Homestead National Historical Park,NE,MW,40.28796405,-96.8340255,Midwest
259,CHCU,Chaco Culture National Historical Park,NM,IM,36.04498405,-107.9481009,Sagebrush
260,GRKO,Grant-Kohrs Ranch National Historic Site,MT,IM,46.41375198,-112.7466932,Mountains
261,CAJO,Captain John Smith National Historic Trail,MD,NE,37.41218041,-76.65335312,Coastal
262,INDE,Independence National Historical Park,PA,NE,39.95167971,-75.14942246,Coastal
263,JAZZ,New Orleans Jazz National Historical Park,LA,SE,29.96303124,-90.06749668,Coastal
264,BICR,Birmingham Civil Rights National Monument,AL,SE,33.51542789,-86.8146665,Coastal
265,NACA,National Capital Parks,DC,NC,39.06319291,-76.83522058,Northeast
266,GRTE,Grand Teton National Park,WY,IM,43.81816011,-110.7054877,Mountains
267,CHIC,Chickasaw National Recreation Area,OK,IM,34.46051139,-97.00701853,Plains
268,STRI,Stones River National Battlefield,TN,SE,35.87324129,-86.43416345,Midwest
269,GRSA,Great Sand Dunes National Preserve,CO,IM,37.86394952,-105.5434416,Mountains
270,GRSA,Great Sand Dunes National Park,CO,IM,37.7765526,-105.6288882,Mountains
271,BITH,Big Thicket National Preserve,TX,IM,30.34087514,-94.23162011,Coastal
272,RIGR,Rio Grande Wild and Scenic River,TX,IM,29.75774863,-102.5327128,DesertSW
273,RIRA,River Raisin National Battlefield Park,MI,MW,41.91296417,-83.37617913,Midwest
274,MIMA,Minute Man National Historical Park,MA,NE,42.45340009,-71.29604026,Northeast
275,BLCA,Black Canyon of the Gunnison National Park,CO,IM,38.5790608,-107.7257231,Sagebrush
276,WACA,Walnut Canyon National Monument,AZ,IM,35.16818624,-111.5200147,Sagebrush
277,WUPA,Wupatki National Monument,AZ,IM,35.56117571,-111.4036362,Sagebrush
278,WABA,Washita Battlefield National Historic Site,OK,IM,35.62084777,-99.70446169,Plains
279,KAWW,Katahdin Woods And Waters National Monument,ME,NE,45.94763062,-68.73668792,Northeast
280,ROLA,Ross Lake National Recreation Area,WA,PW,48.70588997,-121.1727833,NWForest
281,BIBE,Big Bend National Park,TX,IM,29.29738038,-103.2294348,DesertSW
282,CHOH,Chesapeake and Ohio Canal National Historical Park,DC,NC,39.11788063,-77.49586914,Northeast
283,SARA,Saratoga National Historical Park,NY,NE,42.99520473,-73.63143217,Northeast
284,VAFO,Valley Forge National Historical Park,PA,NE,40.10060392,-75.44573045,Northeast
285,LAKE,Lake Mead National Recreation Area,NV,PW,35.71471937,-114.6519029,DesertSW
286,MISS,Mississippi National River and Recreation Area,MN,MW,44.77223486,-92.93011156,Midwest
287,HSTR,Harry S Truman National Historic Site,MO,MW,38.90119217,-94.53057689,Midwest
288,CHSC,Little Rock Central High School National Historic Site,AR,MW,34.73695488,-92.29975106,Midwest
289,CEBR,Cedar Breaks National Monument,UT,IM,37.63540547,-112.8451579,Sagebrush
290,FODA,Fort Davis National Historic Site,TX,IM,30.59930362,-103.8961905,DesertSW
291,FOMR,Fort Monroe National Monument,VA,NE,37.00420093,-76.30695468,Coastal
292,ARCH,Arches National Park,UT,IM,38.72253865,-109.5863498,Sagebrush
293,FOLA,Fort Laramie National Historic Site,WY,IM,42.20301606,-104.5459092,Plains
294,TUMA,Tumacacori National Historical Park,AZ,IM,31.57283247,-111.0477626,DesertSW
295,TUSK,Tule Springs Fossil Beds National Monument,NV,PW,36.40603688,-115.3523476,DesertSW
296,WICL,President William Jefferson Clinton Birthplace Home National Historic Site,AR,MW,33.6676206,-93.59636074,Midwest
297,FOUS,Fort Union Trading Post National Historic Site,ND,MW,47.99898646,-104.0380786,Plains
298,GRCA,Grand Canyon National Park,AZ,IM,36.18654515,-112.185254,Sagebrush
299,PAIS,Padre Island National Seashore,TX,IM,26.70577504,-97.34106777,Coastal
300,MEVE,Mesa Verde National Park,CO,IM,37.22348503,-108.5009479,Sagebrush
301,CUIS,Cumberland Island National Seashore,GA,SE,30.8571973,-81.45175136,Coastal
302,KEMO,Kennesaw Mountain National Battlefield Park,GA,SE,33.9780605,-84.57892581,Coastal
303,SHIL,Shiloh National Military Park,MS,SE,35.13659697,-88.34048627,Midwest
304,OZAR,Ozark National Scenic Riverway,MO,MW,37.14716237,-91.19602596,Midwest
305,FILA,First Ladies National Historic Site,OH,MW,40.79662217,-81.37593264,Midwest
306,WICR,Wilson's Creek National Battlefield,MO,MW,37.09981886,-93.40967533,Midwest
307,GWCA,George Washington Carver National Monument,MO,MW,36.9866416,-94.35552354,Midwest
308,HAVO,Hawai'i Volcanoes National Park,HI,PW,19.37757748,-155.6028551,NA
309,CANE,Camp Nelson National Monument,KY,SE,37.79701799,-84.59816831,Midwest
310,SACN,Saint Croix National Scenic Riverway,WI,MW,45.98021519,-91.57848434,Midwest
311,PIRO,Pictured Rocks National Lakeshore,MI,MW,46.51296947,-86.46665373,Midwest
312,VALL,Valles Caldera National Preserve,NM,IM,35.91677877,-106.5196145,Sagebrush
313,CUVA,Cuyahoga Valley National Park,OH,MW,41.26123633,-81.56904389,Midwest
314,DENA,Denali National Preserve,AK,AK,63.47750715,-152.4397427,NA
315,WRST,Wrangell-St. Elias National Park,AK,AK,60.69186129,-142.1319886,NA
316,WRST,Wrangell-St. Elias National Preserve,AK,AK,62.23493406,-142.571767,NA
317,GLBA,Glacier Bay National Park,AK,AK,58.79140239,-136.810818,NA
318,GLBA,Glacier Bay National Preserve,AK,AK,59.13134067,-138.3514306,NA
319,KATM,Katmai National Park,AK,AK,58.5625551,-154.9794596,NA
320,KEFJ,Kenai Fjords National Park,AK,AK,59.95323682,-149.8815245,NA
321,LACL,Lake Clark National Preserve,AK,AK,60.18402801,-154.5684184,NA
322,NOAT,Noatak National Preserve,AK,AK,68.18143909,-159.3944863,NA
323,BELA,Bering Land Bridge National Preserve,AK,AK,65.75704848,-163.9208061,NA
324,ALAG,Alagnak Wild River,AK,AK,59.00306616,-156.082237,NA
325,SITK,Sitka National Historical Park,AK,AK,57.04713919,-135.3155149,NA
326,ANIA,Aniakchak National Monument,AK,AK,56.89544341,-158.1178088,NA
327,CAKR,Cape Krusenstern National Monument,AK,AK,67.41218543,-163.502573,NA
328,GAAR,Gates of the Arctic National Park,AK,AK,67.86900571,-153.3869032,NA
329,DENA,Denali National Park,AK,AK,63.34110764,-150.7341459,NA
330,KATM,Katmai National Preserve,AK,AK,59.10664595,-155.3200511,NA
331,KOVA,Kobuk Valley National Park,AK,AK,67.35336474,-159.1988853,NA
332,GAAR,Gates of the Arctic National Preserve,AK,AK,66.77953337,-154.9154158,NA
333,ANIA,Aniakchak National Preserve,AK,AK,56.86503221,-157.7208239,NA
334,YUCH,Yukon-Charley Rivers National Preserve,AK,AK,65.0897864,-142.7984276,NA
335,LACL,Lake Clark National Park,AK,AK,60.54714894,-153.2486797,NA
336,KLGO,Klondike Gold Rush National Historical Park,AK,AK,59.63158703,-135.2926367,NA
337,ROMO,Rocky Mountain National Park,CO,IM,40.35566736,-105.6977806,Mountains
338,ROCR,Rock Creek Park,DC,NC,38.96301367,-77.04608226,Northeast
339,PISC,Piscataway Park,MD,NC,38.68389052,-77.05511646,Northeast
340,MANA,Manassas National Battlefield Park,VA,NC,38.82077086,-77.5300397,Northeast
341,KAHO,Kaloko-Honokohau National Historical Park,HI,PW,19.68089539,-156.0305157,NA
342,JOTR,Joshua Tree National Park,CA,PW,33.82705761,-115.8601225,DesertSW
343,IATR,Ice Age National Scenic Trail,WI,MW,43.07693125,-89.61392285,Midwest
344,HEHO,Herbert Hoover National Historic Site,IA,MW,41.66738336,-91.35150351,Midwest
345,FOSC,Fort Scott National Historic Site,KS,MW,37.84361911,-94.70443938,Midwest
346,FLFO,Florissant Fossil Beds National Monument,CO,IM,38.91291967,-105.2818247,Mountains
347,EVER,Everglades National Park,FL,SE,25.3751765,-80.88179749,NA
348,COLO,Colonial National Historical Park,VA,NE,37.23790224,-76.53166423,Coastal
349,ANTI,Antietam National Battlefield,MD,NC,39.47015074,-77.73807277,Northeast
350,GETT,Gettysburg National Military Park,PA,NE,39.80428488,-77.23846983,Northeast
351,HOCU,Hopewell Culture National Historical Park,OH,MW,39.2793938,-83.13519508,Midwest
352,BADL,Badlands National Park,SD,MW,43.74193158,-102.5187015,Plains
353,AMIS,Amistad National Recreation Area,TX,IM,29.47749132,-101.080952,DesertSW
354,PRWI,Prince William Forest Park,VA,NC,38.58583172,-77.38741686,Northeast
355,EFMO,Effigy Mounds National Monument,IA,MW,43.09138726,-91.2082691,Midwest
356,NIOB,Niobrara National Scenic River,NE,MW,42.72586558,-99.63198757,Plains
357,PERI,Pea Ridge National Military Park,AR,MW,36.45477996,-94.03444522,Midwest
358,PEFO,Petrified Forest National Park,AZ,IM,34.98864309,-109.674686,Sagebrush
359,WIHO,William Howard Taft National Historic Site,OH,MW,39.11970352,-84.50758951,Midwest
360,TULE,Tule Lake National Monument,CA,PW,41.88660983,-121.3746611,NWForest
361,PERL,Pearl Harbor National Memorial,HI,PW,21.36699344,-157.9384992,NA
362,MUWO,Muir Woods National Monument,CA,PW,37.89846364,-122.5839508,NWForest
363,MOJA,Mojave National Preserve,CA,PW,35.11418353,-115.5143519,DesertSW
364,MONO,Monocacy National Battlefield,MD,NC,39.35768973,-77.40246711,Northeast
365,BICY,Big Cypress National Preserve,FL,SE,25.97093371,-81.08111494,NA
366,ALFL,Alibates Flint Quarries National Monument,TX,IM,35.58195864,-101.6717092,Plains
367,LAMR,Lake Meredith National Recreation Area,TX,IM,35.59592801,-101.6962211,Plains
368,VIIS,Virgin Islands National Park,VI,SE,18.34279223,-64.74194935,NA
369,JOMU,John Muir National Historic Site,CA,PW,37.98262982,-122.1326605,NWForest
370,CALO,Cape Lookout National Seashore,NC,SE,34.95814293,-76.19011913,Coastal
371,FORA,Fort Raleigh National Historic Site,NC,SE,35.93443275,-75.7167578,
372,OLYM,Olympic National Park,WA,PW,47.79456549,-123.6183453,NWForest
373,POPO,Poverty Point National Monument,LA,SE,32.63518027,-91.40818684,Coastal
374,ASIS,Assateague Island National Seashore,MD,NE,38.04733947,-75.24741241,Coastal
375,SAJH,San Juan Island National Historical Park,WA,PW,48.46215702,-123.0051183,NWForest
376,REDW,Redwood National Park,CA,PW,41.26673794,-124.0039584,NWForest
377,SHEN,Shenandoah National Park,VA,NE,38.28027394,-78.68108277,Northeast
378,ACAD,Acadia National Park,ME,NE,44.31640331,-68.28150183,Northeast
379,TIMU,Timucuan Ecological and Historic Preserve,FL,SE,30.56599005,-81.61913759,Coastal
380,SAJU,San Juan National Historic Site,PR,SE,18.46747669,-66.11141934,NA
381,BLUE,Bluestone National Scenic River,WV,NE,37.58972464,-80.9611959,Northeast
382,GARI,Gauley River National Recreation Area,WV,NE,38.20604117,-81.00443314,Northeast
383,LEWI,Lewis and Clark National Historical Park,WA,PW,46.28618254,-124.0676324,NWForest
384,NEPE,Nez Perce National Historical Park,WA,PW,45.79445888,-116.276942,Sagebrush
385,LARO,Lake Roosevelt National Recreation Area,WA,PW,47.94264,-118.6707948,Sagebrush
386,HATU,Harriet Tubman Underground Railroad National Historical Park,MD,NE,38.44061052,-76.07333257,Coastal
387,STEA,Steamtown National Historic Site,PA,NE,41.40659948,-75.67016117,Northeast
388,EBLA,Ebey's Landing National Historical Reserve,WA,PW,48.21415458,-122.6877191,NWForest
389,FIIS,Fire Island National Seashore,NY,NE,40.69219815,-72.99447132,Coastal
390,CHCH,Chickamauga and Chattanooga National Military Park,GA,SE,34.91901141,-85.25405269,Midwest
391,GRSM,Great Smoky Mountains National Park,NC,SE,35.60771717,-83.52578584,Midwest
392,NERI,New River Gorge National Park and Preserve,VA,NE,37.76651872,-80.9265659,Northeast
393,CAHA,Cape Hatteras National Seashore,NC,SE,35.23939423,-75.53180299,Coastal
394,LOWE,Lowell National Historical Park,MA,NE,42.63921868,-71.31966915,Northeast
395,BISO,Big South Fork National River and Recreation Area,TN,SE,36.53754879,-84.66390226,Midwest
396,DEWA,Delaware Water Gap National Recreation Area,PA,NE,41.09883503,-74.94043091,Northeast
397,ISRO,Isle Royale National Park,MI,MW,48.01098605,-88.82849596,Midwest
398,BLRI,Blue Ridge Parkway,NC,NT,36.42683039,-81.12868931,Midwest
399,VICK,Vicksburg National Military Park,LA,SE,32.36531059,-90.84234534,Coastal
400,DELA,Delaware National Scenic River,PA,NE,41.03204903,-75.04115889,Northeast
401,HART,Harriet Tubman National Historical Park,NY,NE,42.91160614,-76.56102621,Northeast
402,WHSA,White Sands National Park,NM,IM,32.77833593,-106.3253504,DesertSW
403,MNRR,Missouri National Recreation River,SD,MW,42.76675767,-97.07035699,Plains
404,MIMI,Minuteman Missile National Historic Site,SD,MW,43.84457664,-101.9004328,Plains
405,INDU,Indiana Dunes National Park,IN,MW,41.66141983,-87.03250985,Midwest
406,DEVA,Death Valley National Park,CA,PW,36.47822472,-117.1297696,DesertSW
407,SLBE,Sleeping Bear Dunes National Lakeshore,MI,MW,45.11150636,-86.01498264,Midwest
408,RICH,Richmond National Battlefield Park,VA,NE,37.57807907,-77.28239737,Northeast
409,OBRI,Obed Wild and Scenic River,TN,SE,36.084517,-84.72237639,Midwest
410,SAMO,Santa Monica Mountains National Recreation Area,CA,PW,34.08377085,-118.7201796,DesertSW
411,NICO,Nicodemus National Historic Site,KS,MW,39.39036046,-99.61784173,Plains
412,CHPI,Charles Pinckney National Historic Site,SC,SE,32.84574128,-79.8249504,Coastal
413,FRRI,Freedom Riders National Monument,AL,SE,33.6349576,-85.90797187,Midwest
414,REER,Reconstruction Era National Historical Park,SC,SE,32.3850476,-80.67980535,Coastal
415,CHAT,Chattahoochee River National Recreation Area,GA,SE,33.97384335,-84.26674058,Coastal
416,HOSP,Hot Springs National Park,AR,MW,34.51112112,-93.08972185,Midwest
417,BUFF,Buffalo National River,AR,MW,35.96864401,-92.91810617,Midwest
418,PETR,Petroglyph National Monument,NM,IM,35.13425445,-106.752257,Sagebrush
419,SAAN,San Antonio Missions National Historical Park,TX,IM,29.33273056,-98.45466742,Coastal
420,APPA,Appalachian National Scenic Trail,ME,NT,35.99984423,-82.47478351,Midwest
421,GWMP,George Washington Memorial Parkway,VA,NC,38.71497855,-77.04954632,Northeast
422,MEMY,Medgar and Myrlie Evers Home National Monument,MS,SE,32.3408388,-90.21383586,Coastal
423,MISP,Mill Springs Battlefield National Monument,KY,SE,37.05689626,-84.7376597,Midwest
424,NOCO,North Country National Scenic Trail,MI,NT,46.39221889,-91.80766628,Midwest
425,DDEM,Dwight D. Eisenhower Memorial,DC,NC,38.8871361,-77.01879266,Northeast
426,STGE,Ste. Geneviève National Historical Park,MO,MW,37.9734235,-90.04138356,Midwest
